IDEFIX & ARIANE 42P R/B 
1 27422U 02021B   26062.41281562  .00000369  00000+0  15662-3 0  9997
2 27422  98.5864   1.0943 0011217 201.2440 158.8279 14.31020865243123
AQUA                    
1 27424U 02022A   26062.59272290  .00001383  00000+0  28597-3 0  9995
2 27424  98.4164  29.8471 0000665  58.4833 359.7179 14.61959184267848
CZ-4B R/B               
1 27432U 02024C   26062.64636141  .00000065  00000+0  56405-4 0  9997
2 27432  98.8852 116.0832 0050746  41.1950  73.1351 14.14546346228384
MIDORI II (ADEOS-II)    
1 27597U 02056A   26062.50326727  .00000386  00000+0  16951-3 0  9992
2 27597  98.7759  20.9386 0001812  51.7611 308.3733 14.29279329209419
H-2A R/B                
1 27601U 02056E   26062.50664036  .00000345  00000+0  13532-3 0  9993
2 27601  98.3191  23.1080 0070113 179.0469 295.4990 14.33755888213221
CZ-4B R/B               
1 28059U 03049C   26062.60701064  .00000550  00000+0  13780-3 0  9991
2 28059  98.6873  57.2734 0047055 249.8633 109.7497 14.55013265185712
CZ-2C R/B               
1 28222U 04012C   26062.59527340  .00070849  00000+0  75404-3 0  9994
2 28222  97.7246 127.3138 0013355 334.3248  25.7345 15.63675562203324
SL-16 R/B               
1 28353U 04021B   26062.51716260 -.00000122  00000+0 -38549-4 0  9991
2 28353  70.9992 245.4467 0003724  21.9889 338.1393 14.14599678121967
CZ-4B R/B               
1 28415U 04035C   26062.62659055  .00010935  00000+0  38586-3 0  9996
2 28415  97.3505  96.9417 0031634 353.5115   6.5711 15.28932258178985
CZ-2C R/B               
1 28480U 04046B   26062.59557754  .00000163  00000+0  75542-4 0  9995
2 28480  98.1987 337.9586 0139512 172.4204 187.9132 14.26989820107635
ARIANE 5 R/B            
1 28499U 04049H   26062.43476562  .00001037  00000+0  12046-3 0  9998
2 28499  98.2616 230.6580 0084395  12.1868 348.1361 14.85252013144865
CZ-2D R/B               
1 28738U 05024B   26062.61493436  .00048884  00000+0  61483-3 0  9997
2 28738  97.3595  77.5405 0006760  62.2677 297.9265 15.59502530138833
